<?xml version="1.0" encoding="UTF-8"?>
<gpx version="1.1" creator="Ublox ZED-F9R Logger" xmlns="http://www.topografix.com/GPX/1/1">
  <trk>
    <name>Ublox ZED-F9R Track</name>
    <trkseg>
      <trkpt lat="0.00000000" lon="0.00000000">
        <ele>0.00</ele>
        <course>0.00</course>
        <time>2025-11-11T00:11:28Z</time>
      </trkpt>
      <trkpt lat="0.00000000" lon="0.00000000">
        <ele>0.00</ele>
        <course>0.00</course>
        <time>2025-11-11T00:11:30Z</time>
      </trkpt>
      <trkpt lat="0.00000000" lon="0.00000000">
        <ele>0.00</ele>
        <course>0.00</course>
        <time>2025-11-11T00:11:32Z</time>
      </trkpt>
      <trkpt lat="0.00000000" lon="0.00000000">
        <ele>0.00</ele>
        <course>0.00</course>
        <time>2025-11-11T00:11:34Z</time>
      </trkpt>
    </trkseg>
  </trk>
</gpx>
